HST                     
1 20580U 90037B   26068.15977042  .00009063  00000+0  30023-3 0  9999
2 20580  28.4717  43.6133 0001837 120.9992 239.0785 15.29473555773239
STARLINK-34943          
1 65366U 25190R   26068.56993954  .00011965  00000+0  41569-3 0  9994
2 65366  53.1576 168.9653 0001206  77.6681 282.4454 15.30181050 29269
